{
  "type" : "FeatureCollection",
  "features" : [{"type":"Feature","id":1,"geometry":{"type":"Point","coordinates":[-95.665029999999945,39.161321000000044]},"properties":{"OBJECTID":1,"Product_Type_i":"Raw","From_ID":"Farm1","From_Node":"Midwest Poultry Farm","From_City_Area":"Near Sedalia","From_State":"MO","From_Latitude":38.752989999999997,"From_Longitude":-93.304969999999997,"Product_Type_j":" Raw","To_ID":"Processor3","To_Node":"Kansas City Processing Hub","To_City_Area":"Topeka","To_State":"KS","To_Latitude":39.161321000000001,"To_Longitude":-95.665030000000002,"Quantity":4000}},{"type":"Feature","id":2,"geometry":{"type":"Point","coordinates":[-93.914218999999946,36.917832000000033]},"properties":{"OBJECTID":2,"Product_Type_i":"Raw","From_ID":"Farm1","From_Node":"Midwest Poultry Farm","From_City_Area":"Near Sedalia","From_State":"MO","From_Latitude":38.752989999999997,"From_Longitude":-93.304969999999997,"Product_Type_j":" Raw","To_ID":"Processor4","To_Node":"Monett Poultry Processor","To_City_Area":"Monett","To_State":"MO","To_Latitude":36.917831999999997,"To_Longitude":-93.914219000000003,"Quantity":4000}},{"type":"Feature","id":3,"geometry":{"type":"Point","coordinates":[-93.914218999999946,36.917832000000033]},"properties":{"OBJECTID":3,"Product_Type_i":"Raw","From_ID":"Farm2","From_Node":"Golden Valley Poultry","From_City_Area":"Near Springfield","From_State":"MO","From_Latitude":37.280709999999999,"From_Longitude":-93.242500000000007,"Product_Type_j":" Raw","To_ID":"Processor4","To_Node":"Monett Poultry Processor","To_City_Area":"Monett","To_State":"MO","To_Latitude":36.917831999999997,"To_Longitude":-93.914219000000003,"Quantity":4000}},{"type":"Feature","id":4,"geometry":{"type":"Point","coordinates":[-94.299085999999988,35.496491000000049]},"properties":{"OBJECTID":4,"Product_Type_i":"Raw","From_ID":"Farm2","From_Node":"Golden Valley Poultry","From_City_Area":"Near Springfield","From_State":"MO","From_Latitude":37.280709999999999,"From_Longitude":-93.242500000000007,"Product_Type_j":" Raw","To_ID":"Processor6","To_Node":"Fort Smith Regional Processor","To_City_Area":"Fort Smith","To_State":"AR","To_Latitude":35.496490999999999,"To_Longitude":-94.299086000000003,"Quantity":4000}},{"type":"Feature","id":5,"geometry":{"type":"Point","coordinates":[-89.642166999999972,39.84193300000004]},"properties":{"OBJECTID":5,"Product_Type_i":"Raw","From_ID":"Farm3","From_Node":"Heartland Poultry Co.","From_City_Area":"Southern Illinois","From_State":"IL","From_Latitude":38.01708,"From_Longitude":-89.014179999999996,"Product_Type_j":" Raw","To_ID":"Processor1","To_Node":"Springfield Processor","To_City_Area":"Springfield","To_State":"IL","To_Latitude":39.841932999999997,"To_Longitude":-89.642167000000001,"Quantity":4000}},{"type":"Feature","id":6,"geometry":{"type":"Point","coordinates":[-90.460895999999991,38.540593000000058]},"properties":{"OBJECTID":6,"Product_Type_i":"Raw","From_ID":"Farm3","From_Node":"Heartland Poultry Co.","From_City_Area":"Southern Illinois","From_State":"IL","From_Latitude":38.01708,"From_Longitude":-89.014179999999996,"Product_Type_j":" Raw","To_ID":"Processor2","To_Node":"St. Louis Processing Facility","To_City_Area":"St. Louis","To_State":"MO","To_Latitude":38.540593000000001,"To_Longitude":-90.460896000000005,"Quantity":55000}},{"type":"Feature","id":7,"geometry":{"type":"Point","coordinates":[-89.272330999999951,40.704708000000039]},"properties":{"OBJECTID":7,"Product_Type_i":"Raw","From_ID":"Farm3","From_Node":"Heartland Poultry Co.","From_City_Area":"Southern Illinois","From_State":"IL","From_Latitude":38.01708,"From_Longitude":-89.014179999999996,"Product_Type_j":" Raw","To_ID":"Processor5","To_Node":"Arthur Poultry Processing","To_City_Area":"Peoria","To_State":"IL","To_Latitude":40.704707999999997,"To_Longitude":-89.272330999999994,"Quantity":34687.429100000001}},{"type":"Feature","id":8,"geometry":{"type":"Point","coordinates":[-89.642166999999972,39.84193300000004]},"properties":{"OBJECTID":8,"Product_Type_i":"Raw","From_ID":"Farm4","From_Node":"Mississippi River Farms","From_City_Area":"Near St. Louis","From_State":"MO","From_Latitude":38.931370000000001,"From_Longitude":-90.123019999999997,"Product_Type_j":" Raw","To_ID":"Processor1","To_Node":"Springfield Processor","To_City_Area":"Springfield","To_State":"IL","To_Latitude":39.841932999999997,"To_Longitude":-89.642167000000001,"Quantity":4000}},{"type":"Feature","id":9,"geometry":{"type":"Point","coordinates":[-90.460895999999991,38.540593000000058]},"properties":{"OBJECTID":9,"Product_Type_i":"Raw","From_ID":"Farm4","From_Node":"Mississippi River Farms","From_City_Area":"Near St. Louis","From_State":"MO","From_Latitude":38.931370000000001,"From_Longitude":-90.123019999999997,"Product_Type_j":" Raw","To_ID":"Processor2","To_Node":"St. Louis Processing Facility","To_City_Area":"St. Louis","To_State":"MO","To_Latitude":38.540593000000001,"To_Longitude":-90.460896000000005,"Quantity":4000}},{"type":"Feature","id":10,"geometry":{"type":"Point","coordinates":[-89.272330999999951,40.704708000000039]},"properties":{"OBJECTID":10,"Product_Type_i":"Raw","From_ID":"Farm4","From_Node":"Mississippi River Farms","From_City_Area":"Near St. Louis","From_State":"MO","From_Latitude":38.931370000000001,"From_Longitude":-90.123019999999997,"Product_Type_j":" Raw","To_ID":"Processor5","To_Node":"Arthur Poultry Processing","To_City_Area":"Peoria","To_State":"IL","To_Latitude":40.704707999999997,"To_Longitude":-89.272330999999994,"Quantity":4000}},{"type":"Feature","id":11,"geometry":{"type":"Point","coordinates":[-89.642166999999972,39.84193300000004]},"properties":{"OBJECTID":11,"Product_Type_i":"Raw","From_ID":"Farm7","From_Node":"Gateway Farms","From_City_Area":"Near East St. Louis","From_State":"IL","From_Latitude":38.525469999999999,"From_Longitude":-90.156570000000002,"Product_Type_j":" Raw","To_ID":"Processor1","To_Node":"Springfield Processor","To_City_Area":"Springfield","To_State":"IL","To_Latitude":39.841932999999997,"To_Longitude":-89.642167000000001,"Quantity":26666.666700000002}},{"type":"Feature","id":12,"geometry":{"type":"Point","coordinates":[-90.460895999999991,38.540593000000058]},"properties":{"OBJECTID":12,"Product_Type_i":"Raw","From_ID":"Farm7","From_Node":"Gateway Farms","From_City_Area":"Near East St. Louis","From_State":"IL","From_Latitude":38.525469999999999,"From_Longitude":-90.156570000000002,"Product_Type_j":" Raw","To_ID":"Processor2","To_Node":"St. Louis Processing Facility","To_City_Area":"St. Louis","To_State":"MO","To_Latitude":38.540593000000001,"To_Longitude":-90.460896000000005,"Quantity":7985.9632000000001}},{"type":"Feature","id":13,"geometry":{"type":"Point","coordinates":[-89.272330999999951,40.704708000000039]},"properties":{"OBJECTID":13,"Product_Type_i":"Raw","From_ID":"Farm7","From_Node":"Gateway Farms","From_City_Area":"Near East St. Louis","From_State":"IL","From_Latitude":38.525469999999999,"From_Longitude":-90.156570000000002,"Product_Type_j":" Raw","To_ID":"Processor5","To_Node":"Arthur Poultry Processing","To_City_Area":"Peoria","To_State":"IL","To_Latitude":40.704707999999997,"To_Longitude":-89.272330999999994,"Quantity":4000}},{"type":"Feature","id":14,"geometry":{"type":"Point","coordinates":[-94.537950999999964,38.854474000000039]},"properties":{"OBJECTID":14,"Product_Type_i":"Raw","From_ID":"Processor1","From_Node":"Springfield Processor","From_City_Area":"Springfield","From_State":"IL","From_Latitude":39.841932999999997,"From_Longitude":-89.642167000000001,"Product_Type_j":" Raw","To_ID":"Warehouse2","To_Node":"Kansas City Cold Storage Hub","To_City_Area":"Kansas City","To_State":"MO","To_Latitude":38.854474000000003,"To_Longitude":-94.537951000000007,"Quantity":4000}},{"type":"Feature","id":15,"geometry":{"type":"Point","coordinates":[-87.49949799999996,41.637709000000029]},"properties":{"OBJECTID":15,"Product_Type_i":"Raw","From_ID":"Processor1","From_Node":"Springfield Processor","From_City_Area":"Springfield","From_State":"IL","From_Latitude":39.841932999999997,"From_Longitude":-89.642167000000001,"Product_Type_j":" Raw","To_ID":"Warehouse3","To_Node":"Chicago Metro Cold Warehouse","To_City_Area":"Hammond (Chicago Metro)","To_State":"IN","To_Latitude":41.637709000000001,"To_Longitude":-87.499498000000003,"Quantity":4000}},{"type":"Feature","id":16,"geometry":{"type":"Point","coordinates":[-90.528040999999973,38.781930000000045]},"properties":{"OBJECTID":16,"Product_Type_i":"Raw","From_ID":"Processor2","From_Node":"St. Louis Processing Facility","From_City_Area":"St. Louis","From_State":"MO","From_Latitude":38.540593000000001,"From_Longitude":-90.460896000000005,"Product_Type_j":" Raw","To_ID":"Warehouse1","To_Node":"St. Louis Regional Cold DC","To_City_Area":"O'Fallon","To_State":"MO","To_Latitude":38.781930000000003,"To_Longitude":-90.528041000000002,"Quantity":16874.525000000001}},{"type":"Feature","id":17,"geometry":{"type":"Point","coordinates":[-94.537950999999964,38.854474000000039]},"properties":{"OBJECTID":17,"Product_Type_i":"Raw","From_ID":"Processor2","From_Node":"St. Louis Processing Facility","From_City_Area":"St. Louis","From_State":"MO","From_Latitude":38.540593000000001,"From_Longitude":-90.460896000000005,"Product_Type_j":" Raw","To_ID":"Warehouse2","To_Node":"Kansas City Cold Storage Hub","To_City_Area":"Kansas City","To_State":"MO","To_Latitude":38.854474000000003,"To_Longitude":-94.537951000000007,"Quantity":2181.8182000000002}},{"type":"Feature","id":18,"geometry":{"type":"Point","coordinates":[-94.537950999999964,38.854474000000039]},"properties":{"OBJECTID":18,"Product_Type_i":"Raw","From_ID":"Processor4","From_Node":"Monett Poultry Processor","From_City_Area":"Monett","From_State":"MO","From_Latitude":36.917831999999997,"From_Longitude":-93.914219000000003,"Product_Type_j":" Raw","To_ID":"Warehouse2","To_Node":"Kansas City Cold Storage Hub","To_City_Area":"Kansas City","To_State":"MO","To_Latitude":38.854474000000003,"To_Longitude":-94.537951000000007,"Quantity":4000}},{"type":"Feature","id":19,"geometry":{"type":"Point","coordinates":[-87.49949799999996,41.637709000000029]},"properties":{"OBJECTID":19,"Product_Type_i":"Raw","From_ID":"Processor4","From_Node":"Monett Poultry Processor","From_City_Area":"Monett","From_State":"MO","From_Latitude":36.917831999999997,"From_Longitude":-93.914219000000003,"Product_Type_j":" Raw","To_ID":"Warehouse3","To_Node":"Chicago Metro Cold Warehouse","To_City_Area":"Hammond (Chicago Metro)","To_State":"IN","To_Latitude":41.637709000000001,"To_Longitude":-87.499498000000003,"Quantity":4000}},{"type":"Feature","id":20,"geometry":{"type":"Point","coordinates":[-94.537950999999964,38.854474000000039]},"properties":{"OBJECTID":20,"Product_Type_i":"Raw","From_ID":"Processor5","From_Node":"Arthur Poultry Processing","From_City_Area":"Peoria","From_State":"IL","From_Latitude":40.704707999999997,"From_Longitude":-89.272330999999994,"Product_Type_j":" Raw","To_ID":"Warehouse2","To_Node":"Kansas City Cold Storage Hub","To_City_Area":"Kansas City","To_State":"MO","To_Latitude":38.854474000000003,"To_Longitude":-94.537951000000007,"Quantity":4000}},{"type":"Feature","id":21,"geometry":{"type":"Point","coordinates":[-87.49949799999996,41.637709000000029]},"properties":{"OBJECTID":21,"Product_Type_i":"Raw","From_ID":"Processor5","From_Node":"Arthur Poultry Processing","From_City_Area":"Peoria","From_State":"IL","From_Latitude":40.704707999999997,"From_Longitude":-89.272330999999994,"Product_Type_j":" Raw","To_ID":"Warehouse3","To_Node":"Chicago Metro Cold Warehouse","To_City_Area":"Hammond (Chicago Metro)","To_State":"IN","To_Latitude":41.637709000000001,"To_Longitude":-87.499498000000003,"Quantity":38687.429100000001}},{"type":"Feature","id":22,"geometry":{"type":"Point","coordinates":[-94.537950999999964,38.854474000000039]},"properties":{"OBJECTID":22,"Product_Type_i":"Raw","From_ID":"Processor6","From_Node":"Fort Smith Regional Processor","From_City_Area":"Fort Smith","From_State":"AR","From_Latitude":35.496490999999999,"From_Longitude":-94.299086000000003,"Product_Type_j":" Raw","To_ID":"Warehouse2","To_Node":"Kansas City Cold Storage Hub","To_City_Area":"Kansas City","To_State":"MO","To_Latitude":38.854474000000003,"To_Longitude":-94.537951000000007,"Quantity":4000}},{"type":"Feature","id":23,"geometry":{"type":"Point","coordinates":[-94.516656999999952,39.055128000000025]},"properties":{"OBJECTID":23,"Product_Type_i":"Raw","From_ID":"Warehouse1","From_Node":"St. Louis Regional Cold DC","From_City_Area":"O'Fallon","From_State":"MO","From_Latitude":38.781930000000003,"From_Longitude":-90.528041000000002,"Product_Type_j":" Raw","To_ID":"Retailer1","To_Node":"Harvesters Community Food Network","To_City_Area":"Kansas City","To_State":"MO","To_Latitude":39.055128000000003,"To_Longitude":-94.516656999999995,"Quantity":3712.3955000000001}},{"type":"Feature","id":24,"geometry":{"type":"Point","coordinates":[-94.516656999999952,39.055128000000025]},"properties":{"OBJECTID":24,"Product_Type_i":"Raw","From_ID":"Warehouse2","From_Node":"Kansas City Cold Storage Hub","From_City_Area":"Kansas City","From_State":"MO","From_Latitude":38.854474000000003,"From_Longitude":-94.537951000000007,"Product_Type_j":" Raw","To_ID":"Retailer1","To_Node":"Harvesters Community Food Network","To_City_Area":"Kansas City","To_State":"MO","To_Latitude":39.055128000000003,"To_Longitude":-94.516656999999995,"Quantity":4000}},{"type":"Feature","id":25,"geometry":{"type":"Point","coordinates":[-90.239333999999985,38.627733000000035]},"properties":{"OBJECTID":25,"Product_Type_i":"Raw","From_ID":"Warehouse3","From_Node":"Chicago Metro Cold Warehouse","From_City_Area":"Hammond (Chicago Metro)","From_State":"IN","From_Latitude":41.637709000000001,"From_Longitude":-87.499498000000003,"Product_Type_j":" Raw","To_ID":"Retailer3","To_Node":"St. Louis Metro Market","To_City_Area":"St. Louis Metro","To_State":"MO–IL","To_Latitude":38.627732999999999,"To_Longitude":-90.239333999999999,"Quantity":9071.7690000000002}},{"type":"Feature","id":26,"geometry":{"type":"Point","coordinates":[-87.49949799999996,41.637709000000029]},"properties":{"OBJECTID":26,"Product_Type_i":"Raw","From_ID":"Warehouse3","From_Node":"Chicago Metro Cold Warehouse","From_City_Area":"Hammond (Chicago Metro)","From_State":"IN","From_Latitude":41.637709000000001,"From_Longitude":-87.499498000000003,"Product_Type_j":" Raw","To_ID":"Retailer4","To_Node":"Chicago Metro Cold Warehouse","To_City_Area":"Hammond (Chicago Metro)","To_State":"IN","To_Latitude":41.637709000000001,"To_Longitude":-87.499498000000003,"Quantity":1199.4654}},{"type":"Feature","id":27,"geometry":{"type":"Point","coordinates":[-90.239333999999985,38.627733000000035]},"properties":{"OBJECTID":27,"Product_Type_i":"Raw","From_ID":"Retailer1","From_Node":"Harvesters Community Food Network","From_City_Area":"Kansas City","From_State":"MO","From_Latitude":39.055128000000003,"From_Longitude":-94.516656999999995,"Product_Type_j":" Raw","To_ID":"Market1","To_Node":"St. Louis Metro Market","To_City_Area":"St. Louis Metro","To_State":"MO–IL","To_Latitude":38.627732999999999,"To_Longitude":-90.239333999999999,"Quantity":4322.4674999999997}},{"type":"Feature","id":28,"geometry":{"type":"Point","coordinates":[-94.422894999999983,39.015927000000033]},"properties":{"OBJECTID":28,"Product_Type_i":"Raw","From_ID":"Retailer1","From_Node":"Harvesters Community Food Network","From_City_Area":"Kansas City","From_State":"MO","From_Latitude":39.055128000000003,"From_Longitude":-94.516656999999995,"Product_Type_j":" Raw","To_ID":"Market2","To_Node":"Kansas City Metro Market","To_City_Area":"Kansas City Metro","To_State":"MO–KS","To_Latitude":39.015926999999998,"To_Longitude":-94.422894999999997,"Quantity":3389.9279999999999}},{"type":"Feature","id":29,"geometry":{"type":"Point","coordinates":[-93.283607999999958,37.161438000000032]},"properties":{"OBJECTID":29,"Product_Type_i":"Raw","From_ID":"Retailer3","From_Node":"St. Louis Metro Market","From_City_Area":"St. Louis Metro","From_State":"MO–IL","From_Latitude":38.627732999999999,"From_Longitude":-90.239333999999999,"Product_Type_j":" Raw","To_ID":"Market3","To_Node":"Springfield Consumer Market","To_City_Area":"Springfield","To_State":"MO","To_Latitude":37.161437999999997,"To_Longitude":-93.283608000000001,"Quantity":320.12549999999999}},{"type":"Feature","id":30,"geometry":{"type":"Point","coordinates":[-87.867125999999985,41.877750000000049]},"properties":{"OBJECTID":30,"Product_Type_i":"Raw","From_ID":"Retailer3","From_Node":"St. Louis Metro Market","From_City_Area":"St. Louis Metro","From_State":"MO–IL","From_Latitude":38.627732999999999,"From_Longitude":-90.239333999999999,"Product_Type_j":" Raw","To_ID":"Market4","To_Node":"Chicago Metro Market","To_City_Area":"Chicago","To_State":"IL","To_Latitude":41.877749999999999,"To_Longitude":-87.867125999999999,"Quantity":7437.1184999999996}},{"type":"Feature","id":31,"geometry":{"type":"Point","coordinates":[-88.962800999999956,40.503592000000026]},"properties":{"OBJECTID":31,"Product_Type_i":"Raw","From_ID":"Retailer3","From_Node":"St. Louis Metro Market","From_City_Area":"St. Louis Metro","From_State":"MO–IL","From_Latitude":38.627732999999999,"From_Longitude":-90.239333999999999,"Product_Type_j":" Raw","To_ID":"Market5","To_Node":"Bloomington Consumer Market","To_City_Area":"Bloomington–Normal","To_State":"IL","To_Latitude":40.503591999999998,"To_Longitude":-88.962800999999999,"Quantity":1314.5250000000001}},{"type":"Feature","id":32,"geometry":{"type":"Point","coordinates":[-97.378634999999974,37.682582000000025]},"properties":{"OBJECTID":32,"Product_Type_i":"Raw","From_ID":"Retailer4","From_Node":"Chicago Metro Cold Warehouse","From_City_Area":"Hammond (Chicago Metro)","From_State":"IN","From_Latitude":41.637709000000001,"From_Longitude":-87.499498000000003,"Product_Type_j":" Raw","To_ID":"Market6","To_Node":"Wichita Consumer Market","To_City_Area":"Wichita","To_State":"KS","To_Latitude":37.682581999999996,"To_Longitude":-97.378635000000003,"Quantity":1001.5134}},{"type":"Feature","id":33,"geometry":{"type":"Point","coordinates":[-101.80149999999998,39.772093000000041]},"properties":{"OBJECTID":33,"Product_Type_i":"Raw","From_ID":"Retailer4","From_Node":"Chicago Metro Cold Warehouse","From_City_Area":"Hammond (Chicago Metro)","From_State":"IN","From_Latitude":41.637709000000001,"From_Longitude":-87.499498000000003,"Product_Type_j":" Raw","To_ID":"Market7","To_Node":"Saint Francis Consumer Market","To_City_Area":"Saint Francis","To_State":"KS","To_Latitude":39.772092999999998,"To_Longitude":-101.8015,"Quantity":197.952}},{"type":"Feature","id":34,"geometry":{"type":"Point","coordinates":[-89.642166999999972,39.84193300000004]},"properties":{"OBJECTID":34,"Product_Type_i":"Semicooked","From_ID":"Farm4","From_Node":"Mississippi River Farms","From_City_Area":"Near St. Louis","From_State":"MO","From_Latitude":38.931370000000001,"From_Longitude":-90.123019999999997,"Product_Type_j":" Semicooked","To_ID":"Processor1","To_Node":"Springfield Processor","To_City_Area":"Springfield","To_State":"IL","To_Latitude":39.841932999999997,"To_Longitude":-89.642167000000001,"Quantity":1996.4359999999999}},{"type":"Feature","id":35,"geometry":{"type":"Point","coordinates":[-87.49949799999996,41.637709000000029]},"properties":{"OBJECTID":35,"Product_Type_i":"Semicooked","From_ID":"Processor1","From_Node":"Springfield Processor","From_City_Area":"Springfield","From_State":"IL","From_Latitude":39.841932999999997,"From_Longitude":-89.642167000000001,"Product_Type_j":" Semicooked","To_ID":"Warehouse3","To_Node":"Chicago Metro Cold Warehouse","To_City_Area":"Hammond (Chicago Metro)","To_State":"IN","To_Latitude":41.637709000000001,"To_Longitude":-87.499498000000003,"Quantity":1996.4359999999999}},{"type":"Feature","id":36,"geometry":{"type":"Point","coordinates":[-94.516656999999952,39.055128000000025]},"properties":{"OBJECTID":36,"Product_Type_i":"Semicooked","From_ID":"Warehouse1","From_Node":"St. Louis Regional Cold DC","From_City_Area":"O'Fallon","From_State":"MO","From_Latitude":38.781930000000003,"From_Longitude":-90.528041000000002,"Product_Type_j":" Semicooked","To_ID":"Retailer1","To_Node":"Harvesters Community Food Network","To_City_Area":"Kansas City","To_State":"MO","To_Latitude":39.055128000000003,"To_Longitude":-94.516656999999995,"Quantity":4000}},{"type":"Feature","id":37,"geometry":{"type":"Point","coordinates":[-94.516656999999952,39.055128000000025]},"properties":{"OBJECTID":37,"Product_Type_i":"Semicooked","From_ID":"Warehouse2","From_Node":"Kansas City Cold Storage Hub","From_City_Area":"Kansas City","From_State":"MO","From_Latitude":38.854474000000003,"From_Longitude":-94.537951000000007,"Product_Type_j":" Semicooked","To_ID":"Retailer1","To_Node":"Harvesters Community Food Network","To_City_Area":"Kansas City","To_State":"MO","To_Latitude":39.055128000000003,"To_Longitude":-94.516656999999995,"Quantity":1141.597}},{"type":"Feature","id":38,"geometry":{"type":"Point","coordinates":[-90.239333999999985,38.627733000000035]},"properties":{"OBJECTID":38,"Product_Type_i":"Semicooked","From_ID":"Warehouse2","From_Node":"Kansas City Cold Storage Hub","From_City_Area":"Kansas City","From_State":"MO","From_Latitude":38.854474000000003,"From_Longitude":-94.537951000000007,"Product_Type_j":" Semicooked","To_ID":"Retailer3","To_Node":"St. Louis Metro Market","To_City_Area":"St. Louis Metro","To_State":"MO–IL","To_Latitude":38.627732999999999,"To_Longitude":-90.239333999999999,"Quantity":6047.8459999999995}},{"type":"Feature","id":39,"geometry":{"type":"Point","coordinates":[-87.49949799999996,41.637709000000029]},"properties":{"OBJECTID":39,"Product_Type_i":"Semicooked","From_ID":"Warehouse3","From_Node":"Chicago Metro Cold Warehouse","From_City_Area":"Hammond (Chicago Metro)","From_State":"IN","From_Latitude":41.637709000000001,"From_Longitude":-87.499498000000003,"Product_Type_j":" Semicooked","To_ID":"Retailer4","To_Node":"Chicago Metro Cold Warehouse","To_City_Area":"Hammond (Chicago Metro)","To_State":"IN","To_Latitude":41.637709000000001,"To_Longitude":-87.499498000000003,"Quantity":799.64359999999999}},{"type":"Feature","id":40,"geometry":{"type":"Point","coordinates":[-90.239333999999985,38.627733000000035]},"properties":{"OBJECTID":40,"Product_Type_i":"Semicooked","From_ID":"Retailer1","From_Node":"Harvesters Community Food Network","From_City_Area":"Kansas City","From_State":"MO","From_Latitude":39.055128000000003,"From_Longitude":-94.516656999999995,"Product_Type_j":" Semicooked","To_ID":"Market1","To_Node":"St. Louis Metro Market","To_City_Area":"St. Louis Metro","To_State":"MO–IL","To_Latitude":38.627732999999999,"To_Longitude":-90.239333999999999,"Quantity":2881.645}},{"type":"Feature","id":41,"geometry":{"type":"Point","coordinates":[-94.422894999999983,39.015927000000033]},"properties":{"OBJECTID":41,"Product_Type_i":"Semicooked","From_ID":"Retailer1","From_Node":"Harvesters Community Food Network","From_City_Area":"Kansas City","From_State":"MO","From_Latitude":39.055128000000003,"From_Longitude":-94.516656999999995,"Product_Type_j":" Semicooked","To_ID":"Market2","To_Node":"Kansas City Metro Market","To_City_Area":"Kansas City Metro","To_State":"MO–KS","To_Latitude":39.015926999999998,"To_Longitude":-94.422894999999997,"Quantity":2259.9520000000002}},{"type":"Feature","id":42,"geometry":{"type":"Point","coordinates":[-93.283607999999958,37.161438000000032]},"properties":{"OBJECTID":42,"Product_Type_i":"Semicooked","From_ID":"Retailer3","From_Node":"St. Louis Metro Market","From_City_Area":"St. Louis Metro","From_State":"MO–IL","From_Latitude":38.627732999999999,"From_Longitude":-90.239333999999999,"Product_Type_j":" Semicooked","To_ID":"Market3","To_Node":"Springfield Consumer Market","To_City_Area":"Springfield","To_State":"MO","To_Latitude":37.161437999999997,"To_Longitude":-93.283608000000001,"Quantity":213.417}},{"type":"Feature","id":43,"geometry":{"type":"Point","coordinates":[-87.867125999999985,41.877750000000049]},"properties":{"OBJECTID":43,"Product_Type_i":"Semicooked","From_ID":"Retailer3","From_Node":"St. Louis Metro Market","From_City_Area":"St. Louis Metro","From_State":"MO–IL","From_Latitude":38.627732999999999,"From_Longitude":-90.239333999999999,"Product_Type_j":" Semicooked","To_ID":"Market4","To_Node":"Chicago Metro Market","To_City_Area":"Chicago","To_State":"IL","To_Latitude":41.877749999999999,"To_Longitude":-87.867125999999999,"Quantity":4958.0789999999997}},{"type":"Feature","id":44,"geometry":{"type":"Point","coordinates":[-88.962800999999956,40.503592000000026]},"properties":{"OBJECTID":44,"Product_Type_i":"Semicooked","From_ID":"Retailer3","From_Node":"St. Louis Metro Market","From_City_Area":"St. Louis Metro","From_State":"MO–IL","From_Latitude":38.627732999999999,"From_Longitude":-90.239333999999999,"Product_Type_j":" Semicooked","To_ID":"Market5","To_Node":"Bloomington Consumer Market","To_City_Area":"Bloomington–Normal","To_State":"IL","To_Latitude":40.503591999999998,"To_Longitude":-88.962800999999999,"Quantity":876.35000000000002}},{"type":"Feature","id":45,"geometry":{"type":"Point","coordinates":[-97.378634999999974,37.682582000000025]},"properties":{"OBJECTID":45,"Product_Type_i":"Semicooked","From_ID":"Retailer4","From_Node":"Chicago Metro Cold Warehouse","From_City_Area":"Hammond (Chicago Metro)","From_State":"IN","From_Latitude":41.637709000000001,"From_Longitude":-87.499498000000003,"Product_Type_j":" Semicooked","To_ID":"Market6","To_Node":"Wichita Consumer Market","To_City_Area":"Wichita","To_State":"KS","To_Latitude":37.682581999999996,"To_Longitude":-97.378635000000003,"Quantity":667.67560000000003}},{"type":"Feature","id":46,"geometry":{"type":"Point","coordinates":[-101.80149999999998,39.772093000000041]},"properties":{"OBJECTID":46,"Product_Type_i":"Semicooked","From_ID":"Retailer4","From_Node":"Chicago Metro Cold Warehouse","From_City_Area":"Hammond (Chicago Metro)","From_State":"IN","From_Latitude":41.637709000000001,"From_Longitude":-87.499498000000003,"Product_Type_j":" Semicooked","To_ID":"Market7","To_Node":"Saint Francis Consumer Market","To_City_Area":"Saint Francis","To_State":"KS","To_Latitude":39.772092999999998,"To_Longitude":-101.8015,"Quantity":131.96799999999999}},{"type":"Feature","id":47,"geometry":{"type":"Point","coordinates":[-95.665029999999945,39.161321000000044]},"properties":{"OBJECTID":47,"Product_Type_i":"Cooked","From_ID":"Farm1","From_Node":"Midwest Poultry Farm","From_City_Area":"Near Sedalia","From_State":"MO","From_Latitude":38.752989999999997,"From_Longitude":-93.304969999999997,"Product_Type_j":" Cooked","To_ID":"Processor3","To_Node":"Kansas City Processing Hub","To_City_Area":"Topeka","To_State":"KS","To_Latitude":39.161321000000001,"To_Longitude":-95.665030000000002,"Quantity":4000}},{"type":"Feature","id":48,"geometry":{"type":"Point","coordinates":[-89.642166999999972,39.84193300000004]},"properties":{"OBJECTID":48,"Product_Type_i":"Cooked","From_ID":"Farm5","From_Node":"Prairie State Poultry","From_City_Area":"Central Illinois","From_State":"IL","From_Latitude":40.820070000000001,"From_Longitude":-89.412880000000001,"Product_Type_j":" Cooked","To_ID":"Processor1","To_Node":"Springfield Processor","To_City_Area":"Springfield","To_State":"IL","To_Latitude":39.841932999999997,"To_Longitude":-89.642167000000001,"Quantity":53658.159699999997}},{"type":"Feature","id":49,"geometry":{"type":"Point","coordinates":[-89.272330999999951,40.704708000000039]},"properties":{"OBJECTID":49,"Product_Type_i":"Cooked","From_ID":"Farm5","From_Node":"Prairie State Poultry","From_City_Area":"Central Illinois","From_State":"IL","From_Latitude":40.820070000000001,"From_Longitude":-89.412880000000001,"Product_Type_j":" Cooked","To_ID":"Processor5","To_Node":"Arthur Poultry Processing","To_City_Area":"Peoria","To_State":"IL","To_Latitude":40.704707999999997,"To_Longitude":-89.272330999999994,"Quantity":4000}},{"type":"Feature","id":50,"geometry":{"type":"Point","coordinates":[-94.537950999999964,38.854474000000039]},"properties":{"OBJECTID":50,"Product_Type_i":"Cooked","From_ID":"Processor1","From_Node":"Springfield Processor","From_City_Area":"Springfield","From_State":"IL","From_Latitude":39.841932999999997,"From_Longitude":-89.642167000000001,"Product_Type_j":" Cooked","To_ID":"Warehouse2","To_Node":"Kansas City Cold Storage Hub","To_City_Area":"Kansas City","To_State":"MO","To_Latitude":38.854474000000003,"To_Longitude":-94.537951000000007,"Quantity":53545.706899999997}},{"type":"Feature","id":51,"geometry":{"type":"Point","coordinates":[-87.49949799999996,41.637709000000029]},"properties":{"OBJECTID":51,"Product_Type_i":"Cooked","From_ID":"Processor1","From_Node":"Springfield Processor","From_City_Area":"Springfield","From_State":"IL","From_Latitude":39.841932999999997,"From_Longitude":-89.642167000000001,"Product_Type_j":" Cooked","To_ID":"Warehouse3","To_Node":"Chicago Metro Cold Warehouse","To_City_Area":"Hammond (Chicago Metro)","To_State":"IN","To_Latitude":41.637709000000001,"To_Longitude":-87.499498000000003,"Quantity":112.4528}},{"type":"Feature","id":52,"geometry":{"type":"Point","coordinates":[-90.528040999999973,38.781930000000045]},"properties":{"OBJECTID":52,"Product_Type_i":"Cooked","From_ID":"Processor3","From_Node":"Kansas City Processing Hub","From_City_Area":"Topeka","From_State":"KS","From_Latitude":39.161321000000001,"From_Longitude":-95.665030000000002,"Product_Type_j":" Cooked","To_ID":"Warehouse1","To_Node":"St. Louis Regional Cold DC","To_City_Area":"O'Fallon","To_State":"MO","To_Latitude":38.781930000000003,"To_Longitude":-90.528041000000002,"Quantity":4000}},{"type":"Feature","id":53,"geometry":{"type":"Point","coordinates":[-87.49949799999996,41.637709000000029]},"properties":{"OBJECTID":53,"Product_Type_i":"Cooked","From_ID":"Processor5","From_Node":"Arthur Poultry Processing","From_City_Area":"Peoria","From_State":"IL","From_Latitude":40.704707999999997,"From_Longitude":-89.272330999999994,"Product_Type_j":" Cooked","To_ID":"Warehouse3","To_Node":"Chicago Metro Cold Warehouse","To_City_Area":"Hammond (Chicago Metro)","To_State":"IN","To_Latitude":41.637709000000001,"To_Longitude":-87.499498000000003,"Quantity":4000}},{"type":"Feature","id":54,"geometry":{"type":"Point","coordinates":[-91.79340499999995,37.906540000000064]},"properties":{"OBJECTID":54,"Product_Type_i":"Cooked","From_ID":"Warehouse1","From_Node":"St. Louis Regional Cold DC","From_City_Area":"O'Fallon","From_State":"MO","From_Latitude":38.781930000000003,"From_Longitude":-90.528041000000002,"Product_Type_j":" Cooked","To_ID":"Retailer2","To_Node":"Rolla Retailers","To_City_Area":"Rolla","To_State":"MO","To_Latitude":37.90654,"To_Longitude":-91.793405000000007,"Quantity":1400}},{"type":"Feature","id":55,"geometry":{"type":"Point","coordinates":[-94.516656999999952,39.055128000000025]},"properties":{"OBJECTID":55,"Product_Type_i":"Cooked","From_ID":"Warehouse2","From_Node":"Kansas City Cold Storage Hub","From_City_Area":"Kansas City","From_State":"MO","From_Latitude":38.854474000000003,"From_Longitude":-94.537951000000007,"Product_Type_j":" Cooked","To_ID":"Retailer1","To_Node":"Harvesters Community Food Network","To_City_Area":"Kansas City","To_State":"MO","To_Latitude":39.055128000000003,"To_Longitude":-94.516656999999995,"Quantity":9254.8745999999992}},{"type":"Feature","id":56,"geometry":{"type":"Point","coordinates":[-91.79340499999995,37.906540000000064]},"properties":{"OBJECTID":56,"Product_Type_i":"Cooked","From_ID":"Warehouse2","From_Node":"Kansas City Cold Storage Hub","From_City_Area":"Kansas City","From_State":"MO","From_Latitude":38.854474000000003,"From_Longitude":-94.537951000000007,"Product_Type_j":" Cooked","To_ID":"Retailer2","To_Node":"Rolla Retailers","To_City_Area":"Rolla","To_State":"MO","To_Latitude":37.90654,"To_Longitude":-91.793405000000007,"Quantity":177.43000000000001}},{"type":"Feature","id":57,"geometry":{"type":"Point","coordinates":[-90.239333999999985,38.627733000000035]},"properties":{"OBJECTID":57,"Product_Type_i":"Cooked","From_ID":"Warehouse2","From_Node":"Kansas City Cold Storage Hub","From_City_Area":"Kansas City","From_State":"MO","From_Latitude":38.854474000000003,"From_Longitude":-94.537951000000007,"Product_Type_j":" Cooked","To_ID":"Retailer3","To_Node":"St. Louis Metro Market","To_City_Area":"St. Louis Metro","To_State":"MO–IL","To_Latitude":38.627732999999999,"To_Longitude":-90.239333999999999,"Quantity":9308.6928000000007}},{"type":"Feature","id":58,"geometry":{"type":"Point","coordinates":[-87.49949799999996,41.637709000000029]},"properties":{"OBJECTID":58,"Product_Type_i":"Cooked","From_ID":"Warehouse3","From_Node":"Chicago Metro Cold Warehouse","From_City_Area":"Hammond (Chicago Metro)","From_State":"IN","From_Latitude":41.637709000000001,"From_Longitude":-87.499498000000003,"Product_Type_j":" Cooked","To_ID":"Retailer4","To_Node":"Chicago Metro Cold Warehouse","To_City_Area":"Hammond (Chicago Metro)","To_State":"IN","To_Latitude":41.637709000000001,"To_Longitude":-87.499498000000003,"Quantity":1439.3585}},{"type":"Feature","id":59,"geometry":{"type":"Point","coordinates":[-90.239333999999985,38.627733000000035]},"properties":{"OBJECTID":59,"Product_Type_i":"Cooked","From_ID":"Retailer1","From_Node":"Harvesters Community Food Network","From_City_Area":"Kansas City","From_State":"MO","From_Latitude":39.055128000000003,"From_Longitude":-94.516656999999995,"Product_Type_j":" Cooked","To_ID":"Market1","To_Node":"St. Louis Metro Market","To_City_Area":"St. Louis Metro","To_State":"MO–IL","To_Latitude":38.627732999999999,"To_Longitude":-90.239333999999999,"Quantity":5186.9610000000002}},{"type":"Feature","id":60,"geometry":{"type":"Point","coordinates":[-94.422894999999983,39.015927000000033]},"properties":{"OBJECTID":60,"Product_Type_i":"Cooked","From_ID":"Retailer1","From_Node":"Harvesters Community Food Network","From_City_Area":"Kansas City","From_State":"MO","From_Latitude":39.055128000000003,"From_Longitude":-94.516656999999995,"Product_Type_j":" Cooked","To_ID":"Market2","To_Node":"Kansas City Metro Market","To_City_Area":"Kansas City Metro","To_State":"MO–KS","To_Latitude":39.015926999999998,"To_Longitude":-94.422894999999997,"Quantity":4067.9135999999999}},{"type":"Feature","id":61,"geometry":{"type":"Point","coordinates":[-88.962800999999956,40.503592000000026]},"properties":{"OBJECTID":61,"Product_Type_i":"Cooked","From_ID":"Retailer2","From_Node":"Rolla Retailers","From_City_Area":"Rolla","From_State":"MO","From_Latitude":37.90654,"From_Longitude":-91.793405000000007,"Product_Type_j":" Cooked","To_ID":"Market5","To_Node":"Bloomington Consumer Market","To_City_Area":"Bloomington–Normal","To_State":"IL","To_Latitude":40.503591999999998,"To_Longitude":-88.962800999999999,"Quantity":1577.4300000000001}},{"type":"Feature","id":62,"geometry":{"type":"Point","coordinates":[-93.283607999999958,37.161438000000032]},"properties":{"OBJECTID":62,"Product_Type_i":"Cooked","From_ID":"Retailer3","From_Node":"St. Louis Metro Market","From_City_Area":"St. Louis Metro","From_State":"MO–IL","From_Latitude":38.627732999999999,"From_Longitude":-90.239333999999999,"Product_Type_j":" Cooked","To_ID":"Market3","To_Node":"Springfield Consumer Market","To_City_Area":"Springfield","To_State":"MO","To_Latitude":37.161437999999997,"To_Longitude":-93.283608000000001,"Quantity":384.1506}},{"type":"Feature","id":63,"geometry":{"type":"Point","coordinates":[-87.867125999999985,41.877750000000049]},"properties":{"OBJECTID":63,"Product_Type_i":"Cooked","From_ID":"Retailer3","From_Node":"St. Louis Metro Market","From_City_Area":"St. Louis Metro","From_State":"MO–IL","From_Latitude":38.627732999999999,"From_Longitude":-90.239333999999999,"Product_Type_j":" Cooked","To_ID":"Market4","To_Node":"Chicago Metro Market","To_City_Area":"Chicago","To_State":"IL","To_Latitude":41.877749999999999,"To_Longitude":-87.867125999999999,"Quantity":8924.5421999999999}},{"type":"Feature","id":64,"geometry":{"type":"Point","coordinates":[-97.378634999999974,37.682582000000025]},"properties":{"OBJECTID":64,"Product_Type_i":"Cooked","From_ID":"Retailer4","From_Node":"Chicago Metro Cold Warehouse","From_City_Area":"Hammond (Chicago Metro)","From_State":"IN","From_Latitude":41.637709000000001,"From_Longitude":-87.499498000000003,"Product_Type_j":" Cooked","To_ID":"Market6","To_Node":"Wichita Consumer Market","To_City_Area":"Wichita","To_State":"KS","To_Latitude":37.682581999999996,"To_Longitude":-97.378635000000003,"Quantity":1201.8161}},{"type":"Feature","id":65,"geometry":{"type":"Point","coordinates":[-101.80149999999998,39.772093000000041]},"properties":{"OBJECTID":65,"Product_Type_i":"Cooked","From_ID":"Retailer4","From_Node":"Chicago Metro Cold Warehouse","From_City_Area":"Hammond (Chicago Metro)","From_State":"IN","From_Latitude":41.637709000000001,"From_Longitude":-87.499498000000003,"Product_Type_j":" Cooked","To_ID":"Market7","To_Node":"Saint Francis Consumer Market","To_City_Area":"Saint Francis","To_State":"KS","To_Latitude":39.772092999999998,"To_Longitude":-101.8015,"Quantity":237.54239999999999}},{"type":"Feature","id":66,"geometry":{"type":"Point","coordinates":[-90.528040999999973,38.781930000000045]},"properties":{"OBJECTID":66,"Product_Type_i":"Raw","From_ID":"Processor1","From_Node":"Springfield Processor","From_City_Area":"Springfield","From_State":"IL","From_Latitude":39.841932999999997,"From_Longitude":-89.642167000000001,"Product_Type_j":" Semicooked","To_ID":"Warehouse1","To_Node":"St. Louis Regional Cold DC","To_City_Area":"O'Fallon","To_State":"MO","To_Latitude":38.781930000000003,"To_Longitude":-90.528041000000002,"Quantity":26666.666700000002}},{"type":"Feature","id":67,"geometry":{"type":"Point","coordinates":[-94.537950999999964,38.854474000000039]},"properties":{"OBJECTID":67,"Product_Type_i":"Raw","From_ID":"Processor2","From_Node":"St. Louis Processing Facility","From_City_Area":"St. Louis","From_State":"MO","From_Latitude":38.540593000000001,"From_Longitude":-90.460896000000005,"Product_Type_j":" Semicooked","To_ID":"Warehouse2","To_Node":"Kansas City Cold Storage Hub","To_City_Area":"Kansas City","To_State":"MO","To_Latitude":38.854474000000003,"To_Longitude":-94.537951000000007,"Quantity":47929.620000000003}},{"type":"Feature","id":68,"geometry":{"type":"Point","coordinates":[-87.49949799999996,41.637709000000029]},"properties":{"OBJECTID":68,"Product_Type_i":"Raw","From_ID":"Processor3","From_Node":"Kansas City Processing Hub","From_City_Area":"Topeka","From_State":"KS","From_Latitude":39.161321000000001,"From_Longitude":-95.665030000000002,"Product_Type_j":" Semicooked","To_ID":"Warehouse3","To_Node":"Chicago Metro Cold Warehouse","To_City_Area":"Hammond (Chicago Metro)","To_State":"IN","To_Latitude":41.637709000000001,"To_Longitude":-87.499498000000003,"Quantity":4000}}]
}