{"type":"FeatureCollection","features":[{"type":"Feature","id":1,"geometry":{"type":"Point","coordinates":[-93.304969999999969,38.752990000000068]},"properties":{"OBJECTID":1,"Product_Type":"Raw","Node":"Farm1","Latitude":38.752989999999997,"Longitude":-93.304969999999997}},{"type":"Feature","id":2,"geometry":{"type":"Point","coordinates":[-93.24249999999995,37.280710000000056]},"properties":{"OBJECTID":2,"Product_Type":"Raw","Node":"Farm2","Latitude":37.280709999999999,"Longitude":-93.242500000000007}},{"type":"Feature","id":3,"geometry":{"type":"Point","coordinates":[-89.014179999999953,38.017080000000078]},"properties":{"OBJECTID":3,"Product_Type":"Raw","Node":"Farm3","Latitude":38.01708,"Longitude":-89.014179999999996}},{"type":"Feature","id":4,"geometry":{"type":"Point","coordinates":[-90.12301999999994,38.931370000000072]},"properties":{"OBJECTID":4,"Product_Type":"Raw","Node":"Farm4","Latitude":38.931370000000001,"Longitude":-90.123019999999997}},{"type":"Feature","id":5,"geometry":{"type":"Point","coordinates":[-90.156569999999988,38.525470000000041]},"properties":{"OBJECTID":5,"Product_Type":"Raw","Node":"Farm7","Latitude":38.525469999999999,"Longitude":-90.156570000000002}},{"type":"Feature","id":6,"geometry":{"type":"Point","coordinates":[-90.239333999999985,38.627733000000035]},"properties":{"OBJECTID":6,"Product_Type":"Raw","Node":"Market1","Latitude":38.627732999999999,"Longitude":-90.239333999999999}},{"type":"Feature","id":7,"geometry":{"type":"Point","coordinates":[-94.422894999999983,39.015927000000033]},"properties":{"OBJECTID":7,"Product_Type":"Raw","Node":"Market2","Latitude":39.015926999999998,"Longitude":-94.422894999999997}},{"type":"Feature","id":8,"geometry":{"type":"Point","coordinates":[-93.283607999999958,37.161438000000032]},"properties":{"OBJECTID":8,"Product_Type":"Raw","Node":"Market3","Latitude":37.161437999999997,"Longitude":-93.283608000000001}},{"type":"Feature","id":9,"geometry":{"type":"Point","coordinates":[-87.867125999999985,41.877750000000049]},"properties":{"OBJECTID":9,"Product_Type":"Raw","Node":"Market4","Latitude":41.877749999999999,"Longitude":-87.867125999999999}},{"type":"Feature","id":10,"geometry":{"type":"Point","coordinates":[-88.962800999999956,40.503592000000026]},"properties":{"OBJECTID":10,"Product_Type":"Raw","Node":"Market5","Latitude":40.503591999999998,"Longitude":-88.962800999999999}},{"type":"Feature","id":11,"geometry":{"type":"Point","coordinates":[-97.378634999999974,37.682582000000025]},"properties":{"OBJECTID":11,"Product_Type":"Raw","Node":"Market6","Latitude":37.682581999999996,"Longitude":-97.378635000000003}},{"type":"Feature","id":12,"geometry":{"type":"Point","coordinates":[-101.80149999999998,39.772093000000041]},"properties":{"OBJECTID":12,"Product_Type":"Raw","Node":"Market7","Latitude":39.772092999999998,"Longitude":-101.8015}},{"type":"Feature","id":13,"geometry":{"type":"Point","coordinates":[-89.642166999999972,39.84193300000004]},"properties":{"OBJECTID":13,"Product_Type":"Raw","Node":"Processor1","Latitude":39.841932999999997,"Longitude":-89.642167000000001}},{"type":"Feature","id":14,"geometry":{"type":"Point","coordinates":[-90.460895999999991,38.540593000000058]},"properties":{"OBJECTID":14,"Product_Type":"Raw","Node":"Processor2","Latitude":38.540593000000001,"Longitude":-90.460896000000005}},{"type":"Feature","id":15,"geometry":{"type":"Point","coordinates":[-95.665029999999945,39.161321000000044]},"properties":{"OBJECTID":15,"Product_Type":"Raw","Node":"Processor3","Latitude":39.161321000000001,"Longitude":-95.665030000000002}},{"type":"Feature","id":16,"geometry":{"type":"Point","coordinates":[-93.914218999999946,36.917832000000033]},"properties":{"OBJECTID":16,"Product_Type":"Raw","Node":"Processor4","Latitude":36.917831999999997,"Longitude":-93.914219000000003}},{"type":"Feature","id":17,"geometry":{"type":"Point","coordinates":[-89.272330999999951,40.704708000000039]},"properties":{"OBJECTID":17,"Product_Type":"Raw","Node":"Processor5","Latitude":40.704707999999997,"Longitude":-89.272330999999994}},{"type":"Feature","id":18,"geometry":{"type":"Point","coordinates":[-94.299085999999988,35.496491000000049]},"properties":{"OBJECTID":18,"Product_Type":"Raw","Node":"Processor6","Latitude":35.496490999999999,"Longitude":-94.299086000000003}},{"type":"Feature","id":19,"geometry":{"type":"Point","coordinates":[-94.516656999999952,39.055128000000025]},"properties":{"OBJECTID":19,"Product_Type":"Raw","Node":"Retailer1","Latitude":39.055128000000003,"Longitude":-94.516656999999995}},{"type":"Feature","id":20,"geometry":{"type":"Point","coordinates":[-90.239333999999985,38.627733000000035]},"properties":{"OBJECTID":20,"Product_Type":"Raw","Node":"Retailer3","Latitude":38.627732999999999,"Longitude":-90.239333999999999}},{"type":"Feature","id":21,"geometry":{"type":"Point","coordinates":[-87.49949799999996,41.637709000000029]},"properties":{"OBJECTID":21,"Product_Type":"Raw","Node":"Retailer4","Latitude":41.637709000000001,"Longitude":-87.499498000000003}},{"type":"Feature","id":22,"geometry":{"type":"Point","coordinates":[-90.528040999999973,38.781930000000045]},"properties":{"OBJECTID":22,"Product_Type":"Raw","Node":"Warehouse1","Latitude":38.781930000000003,"Longitude":-90.528041000000002}},{"type":"Feature","id":23,"geometry":{"type":"Point","coordinates":[-94.537950999999964,38.854474000000039]},"properties":{"OBJECTID":23,"Product_Type":"Raw","Node":"Warehouse2","Latitude":38.854474000000003,"Longitude":-94.537951000000007}},{"type":"Feature","id":24,"geometry":{"type":"Point","coordinates":[-87.49949799999996,41.637709000000029]},"properties":{"OBJECTID":24,"Product_Type":"Raw","Node":"Warehouse3","Latitude":41.637709000000001,"Longitude":-87.499498000000003}}]}